{
  "type": "FeatureCollection",
  "features": [
    {
      "type": "Feature",
      "properties": {
        "norad_id": 33901,
        "name": "COSMOS 2251 DEB",
        "group": "cosmos-2251-debris",
        "lat": 40.4870503476122,
        "lon": -132.13144325707714,
        "alt_km": 505.1512130054025,
        "timestamp": "2025-12-06T14:35:37.518973+00:00",
        "meta_object_name": "COSMOS 2251 DEB",
        "meta_object_id": "1993-036DE",
        "meta_epoch": "2025-12-05T22:08:13.007328",
        "meta_mean_motion": 15.14716493,
        "meta_eccentricity": 0.00341432,
        "meta_inclination": 73.7728,
        "meta_ra_of_asc_node": 63.7132,
        "meta_arg_of_pericenter": 196.1486,
        "meta_mean_anomaly": 163.8622,
        "meta_ephemeris_type": 0,
        "meta_classification_type": "U",
        "meta_norad_cat_id": 33901,
        "meta_element_set_no": 999,
        "meta_rev_at_epoch": 89410,
        "meta_bstar": 0.0049307339,
        "meta_mean_motion_dot": 0.0009384,
        "meta_mean_motion_ddot": 0,
        "tle_line1": "1 33901U 93036DE  25339.92237277  .00093840  00000+0  49307-2 0  9996",
        "tle_line2": "2 33901  73.7728  63.7132 0034143 196.1486 163.8622 15.14716493894105"
      },
      "geometry": {
        "type": "Point",
        "coordinates": [
          -132.13144325707714,
          40.4870503476122
        ]
      }
    },
    {
      "type": "Feature",
      "properties": {
        "norad_id": 33905,
        "name": "COSMOS 2251 DEB",
        "group": "cosmos-2251-debris",
        "lat": 0.7922404514596156,
        "lon": 147.76458496569666,
        "alt_km": 743.621829935616,
        "timestamp": "2025-12-06T14:35:37.518984+00:00",
        "meta_object_name": "COSMOS 2251 DEB",
        "meta_object_id": "1993-036DJ",
        "meta_epoch": "2025-12-06T00:38:26.538720",
        "meta_mean_motion": 14.35345958,
        "meta_eccentricity": 0.00592977,
        "meta_inclination": 73.887,
        "meta_ra_of_asc_node": 329.0691,
        "meta_arg_of_pericenter": 219.8623,
        "meta_mean_anomaly": 196.701,
        "meta_ephemeris_type": 0,
        "meta_classification_type": "U",
        "meta_norad_cat_id": 33905,
        "meta_element_set_no": 999,
        "meta_rev_at_epoch": 87591,
        "meta_bstar": 0.0012784521,
        "meta_mean_motion_dot": 3.715e-05,
        "meta_mean_motion_ddot": 0,
        "tle_line1": "1 33905U 93036DJ  25340.02669605  .00003715  00000+0  12785-2 0  9999",
        "tle_line2": "2 33905  73.8870 329.0691 0059297 219.8623 196.7010 14.35345958875919"
      },
      "geometry": {
        "type": "Point",
        "coordinates": [
          147.76458496569666,
          0.7922404514596156
        ]
      }
    },
    {
      "type": "Feature",
      "properties": {
        "norad_id": 33906,
        "name": "COSMOS 2251 DEB",
        "group": "cosmos-2251-debris",
        "lat": -50.24500977952156,
        "lon": -47.01190091319791,
        "alt_km": 695.4495684361673,
        "timestamp": "2025-12-06T14:35:37.518994+00:00",
        "meta_object_name": "COSMOS 2251 DEB",
        "meta_object_id": "1993-036DK",
        "meta_epoch": "2025-12-06T00:17:26.424096",
        "meta_mean_motion": 14.56901333,
        "meta_eccentricity": 0.00364093,
        "meta_inclination": 74.0304,
        "meta_ra_of_asc_node": 334.2556,
        "meta_arg_of_pericenter": 4.8949,
        "meta_mean_anomaly": 57.9639,
        "meta_ephemeris_type": 0,
        "meta_classification_type": "U",
        "meta_norad_cat_id": 33906,
        "meta_element_set_no": 999,
        "meta_rev_at_epoch": 87910,
        "meta_bstar": 0.0032198116,
        "meta_mean_motion_dot": 0.00014579,
        "meta_mean_motion_ddot": 0,
        "tle_line1": "1 33906U 93036DK  25340.01211139  .00014579  00000+0  32198-2 0  9994",
        "tle_line2": "2 33906  74.0304 334.2556 0036409   4.8949  57.9639 14.56901333879104"
      },
      "geometry": {
        "type": "Point",
        "coordinates": [
          -47.01190091319791,
          -50.24500977952156
        ]
      }
    },
    {
      "type": "Feature",
      "properties": {
        "norad_id": 33907,
        "name": "COSMOS 2251 DEB",
        "group": "cosmos-2251-debris",
        "lat": 32.27804951605218,
        "lon": -145.60374783808848,
        "alt_km": 729.5423431426416,
        "timestamp": "2025-12-06T14:35:37.519004+00:00",
        "meta_object_name": "COSMOS 2251 DEB",
        "meta_object_id": "1993-036DL",
        "meta_epoch": "2025-12-06T03:59:10.049856",
        "meta_mean_motion": 14.30416796,
        "meta_eccentricity": 0.01127306,
        "meta_inclination": 74.0708,
        "meta_ra_of_asc_node": 45.591,
        "meta_arg_of_pericenter": 103.021,
        "meta_mean_anomaly": 287.1664,
        "meta_ephemeris_type": 0,
        "meta_classification_type": "U",
        "meta_norad_cat_id": 33907,
        "meta_element_set_no": 999,
        "meta_rev_at_epoch": 86486,
        "meta_bstar": 0.0027161787,
        "meta_mean_motion_dot": 7.554e-05,
        "meta_mean_motion_ddot": 0,
        "tle_line1": "1 33907U 93036DL  25340.16608854  .00007554  00000+0  27162-2 0  9995",
        "tle_line2": "2 33907  74.0708  45.5910 0112730 103.0210 287.1664 14.30416796864862"
      },
      "geometry": {
        "type": "Point",
        "coordinates": [
          -145.60374783808848,
          32.27804951605218
        ]
      }
    },
    {
      "type": "Feature",
      "properties": {
        "norad_id": 33908,
        "name": "COSMOS 2251 DEB",
        "group": "cosmos-2251-debris",
        "lat": -30.518867792485153,
        "lon": -153.19679702632308,
        "alt_km": 861.9685785442362,
        "timestamp": "2025-12-06T14:35:37.519014+00:00",
        "meta_object_name": "COSMOS 2251 DEB",
        "meta_object_id": "1993-036DM",
        "meta_epoch": "2025-12-05T18:16:23.587104",
        "meta_mean_motion": 14.0726195,
        "meta_eccentricity": 0.0223775,
        "meta_inclination": 73.8379,
        "meta_ra_of_asc_node": 218.1477,
        "meta_arg_of_pericenter": 242.9182,
        "meta_mean_anomaly": 114.8968,
        "meta_ephemeris_type": 0,
        "meta_classification_type": "U",
        "meta_norad_cat_id": 33908,
        "meta_element_set_no": 999,
        "meta_rev_at_epoch": 85375,
        "meta_bstar": 0.0030547831,
        "meta_mean_motion_dot": 6.416e-05,
        "meta_mean_motion_ddot": 0,
        "tle_line1": "1 33908U 93036DM  25339.76138411  .00006416  00000+0  30548-2 0  9995",
        "tle_line2": "2 33908  73.8379 218.1477 0223775 242.9182 114.8968 14.07261950853756"
      },
      "geometry": {
        "type": "Point",
        "coordinates": [
          -153.19679702632308,
          -30.518867792485153
        ]
      }
    },
    {
      "type": "Feature",
      "properties": {
        "norad_id": 33911,
        "name": "COSMOS 2251 DEB",
        "group": "cosmos-2251-debris",
        "lat": 45.53703198506413,
        "lon": -169.31215407297876,
        "alt_km": 638.6446938055033,
        "timestamp": "2025-12-06T14:35:37.519025+00:00",
        "meta_object_name": "COSMOS 2251 DEB",
        "meta_object_id": "1993-036DQ",
        "meta_epoch": "2025-12-06T07:00:56.607840",
        "meta_mean_motion": 14.74592052,
        "meta_eccentricity": 0.00144593,
        "meta_inclination": 74.0889,
        "meta_ra_of_asc_node": 174.405,
        "meta_arg_of_pericenter": 118.6995,
        "meta_mean_anomaly": 53.9636,
        "meta_ephemeris_type": 0,
        "meta_classification_type": "U",
        "meta_norad_cat_id": 33911,
        "meta_element_set_no": 999,
        "meta_rev_at_epoch": 88549,
        "meta_bstar": 0.0032100072,
        "meta_mean_motion_dot": 0.00021466,
        "meta_mean_motion_ddot": 0,
        "tle_line1": "1 33911U 93036DQ  25340.29232185  .00021466  00000+0  32100-2 0  9990",
        "tle_line2": "2 33911  74.0889 174.4050 0014459 118.6995  53.9636 14.74592052885493"
      },
      "geometry": {
        "type": "Point",
        "coordinates": [
          -169.31215407297876,
          45.53703198506413
        ]
      }
    },
    {
      "type": "Feature",
      "properties": {
        "norad_id": 33912,
        "name": "COSMOS 2251 DEB",
        "group": "cosmos-2251-debris",
        "lat": 70.58338600591593,
        "lon": -104.40990697872434,
        "alt_km": 720.1058118870214,
        "timestamp": "2025-12-06T14:35:37.519035+00:00",
        "meta_object_name": "COSMOS 2251 DEB",
        "meta_object_id": "1993-036DR",
        "meta_epoch": "2025-12-06T01:41:44.883168",
        "meta_mean_motion": 14.5183888,
        "meta_eccentricity": 0.00115666,
        "meta_inclination": 74.0336,
        "meta_ra_of_asc_node": 202.2869,
        "meta_arg_of_pericenter": 281.1434,
        "meta_mean_anomaly": 229.9255,
        "meta_ephemeris_type": 0,
        "meta_classification_type": "U",
        "meta_norad_cat_id": 33912,
        "meta_element_set_no": 999,
        "meta_rev_at_epoch": 88336,
        "meta_bstar": 0.0012581382,
        "meta_mean_motion_dot": 5.045e-05,
        "meta_mean_motion_ddot": 0,
        "tle_line1": "1 33912U 93036DR  25340.07065837  .00005045  00000+0  12581-2 0  9991",
        "tle_line2": "2 33912  74.0336 202.2869 0011566 281.1434 229.9255 14.51838880883362"
      },
      "geometry": {
        "type": "Point",
        "coordinates": [
          -104.40990697872434,
          70.58338600591593
        ]
      }
    }
  ]
}